[{"OBJECT_NAME":"YAOGAN-7","OBJECT_ID":"2009-069A","EPOCH":"2026-03-09T15:13:41.910240","MEAN_MOTION":14.77892763,"ECCENTRICITY":0.0024777,"INCLINATION":98.0209,"RA_OF_ASC_NODE":315.0474,"ARG_OF_PERICENTER":3.5312,"MEAN_ANOMALY":356.6068,"EPHEMERIS_TYPE":0,"CLASSIFICATION_TYPE":"U","NORAD_CAT_ID":36110,"ELEMENT_SET_NO":999,"REV_AT_EPOCH":87492,"BSTAR":0.00013889,"MEAN_MOTION_DOT":9.51e-6,"MEAN_MOTION_DDOT":0},{"OBJECT_NAME":"NOAA 16 DEB","OBJECT_ID":"2000-055QH","EPOCH":"2026-03-09T15:04:09.573312","MEAN_MOTION":14.74544722,"ECCENTRICITY":0.0024856,"INCLINATION":98.7212,"RA_OF_ASC_NODE":213.2868,"ARG_OF_PERICENTER":301.3825,"MEAN_ANOMALY":58.495,"EPHEMERIS_TYPE":0,"CLASSIFICATION_TYPE":"U","NORAD_CAT_ID":42341,"ELEMENT_SET_NO":999,"REV_AT_EPOCH":52612,"BSTAR":0.0039357,"MEAN_MOTION_DOT":0.00026363,"MEAN_MOTION_DDOT":0}]
